[{"OBJECT_NAME":"ONEWEB-0348","OBJECT_ID":"2021-083AD","EPOCH":"2026-03-09T15:29:27.483936","MEAN_MOTION":13.20771082,"ECCENTRICITY":0.0001664,"INCLINATION":87.917,"RA_OF_ASC_NODE":294.3154,"ARG_OF_PERICENTER":66.4734,"MEAN_ANOMALY":293.6574,"EPHEMERIS_TYPE":0,"CLASSIFICATION_TYPE":"U","NORAD_CAT_ID":49213,"ELEMENT_SET_NO":999,"REV_AT_EPOCH":22367,"BSTAR":-0.00019332,"MEAN_MOTION_DOT":-6.6e-7,"MEAN_MOTION_DDOT":0},{"OBJECT_NAME":"FENGYUN 1C DEB","OBJECT_ID":"1999-025PF","EPOCH":"2026-03-09T15:10:26.595264","MEAN_MOTION":13.69973303,"ECCENTRICITY":0.0276393,"INCLINATION":99.3601,"RA_OF_ASC_NODE":103.6429,"ARG_OF_PERICENTER":139.1282,"MEAN_ANOMALY":345.8895,"EPHEMERIS_TYPE":0,"CLASSIFICATION_TYPE":"U","NORAD_CAT_ID":30054,"ELEMENT_SET_NO":999,"REV_AT_EPOCH":95538,"BSTAR":0.00055836,"MEAN_MOTION_DOT":6.0e-6,"MEAN_MOTION_DDOT":0}]
